STARLINK-1881_new
1 17166C 20088AW  21326.12242197  .00013584  00000-0  44503-3 0  3268
2 17166  53.0484 102.1604 0001587  77.3160 199.6449 15.31087674    14
STARLINK-1881_old
1 27166C 20088AW  21325.14343889  .00011179  00000-0  36658-3 0  3258
2 27166  53.0479 106.7253 0001643  77.7713 200.1149 15.31060122    13
